IRIDIUM 144             
1 43249U 18030A   23281.68054484  .00000565  00000+0  19483-3 0  9992
2 43249  86.4002 341.0521 0002029  95.8474 264.2953 14.34219316289318
IRIDIUM 149             
1 43250U 18030B   23281.68688915  .00000541  00000+0  18600-3 0  9990
2 43250  86.4002 341.0274 0001960  98.6872 261.4546 14.34220021289335
IRIDIUM 157             
1 43251U 18030C   23281.63614632  .00000530  00000+0  18224-3 0  9991
2 43251  86.4003 341.0801 0002376  90.7765 269.3703 14.34221210289309
IRIDIUM 140             
1 43252U 18030D   23282.14355590  .00000550  00000+0  18918-3 0  9996
2 43252  86.4001 340.8827 0001896  92.4614 267.6798 14.34219667289433
IRIDIUM 145             
1 43253U 18030E   23281.78202801  .00000528  00000+0  18161-3 0  9997
2 43253  86.4002 341.0084 0001966 102.8864 257.2551 14.34218986289316
IRIDIUM 146             
1 43254U 18030F   23281.69323347  .00000539  00000+0  18545-3 0  9995
2 43254  86.4005 341.0610 0002096 102.2028 257.9403 14.34217652289318
IRIDIUM 148             
1 43255U 18030G   23281.87082707  .00000608  00000+0  21008-3 0  9993
2 43255  86.4003 341.0150 0002215 101.4079 258.7366 14.34217834289371
IRIDIUM 142             
1 43256U 18030H   23281.69957508  .00000519  00000+0  17842-3 0  9996
2 43256  86.3999 341.0114 0002156  97.0292 263.1149 14.34217073289314
